STARLINK-36134          
1 66863U 25281R   25360.25003472  .00033395  00000+0  57351-3 0  9992
2 66863  43.0003  40.5862 0000956 272.7660 198.1151 15.50535993  3561
STARLINK-36070          
1 66864U 25281S   25360.25003472  .00041472  00000+0  71071-3 0  9993
2 66864  43.0001  40.5805 0001088 248.8129 223.9293 15.50511514  3598
STARLINK-36117          
1 66865U 25281T   25360.25003472  .00037540  00000+0  64366-3 0  9994
2 66865  43.0003  40.5717 0001306 274.5757 202.0545 15.50534790  3565
STARLINK-36126          
1 66866U 25281U   25360.25003472  .00043119  00000+0  73852-3 0  9994
2 66866  43.0000  40.5664 0001054 243.7909 234.7086 15.50512425  3597
STARLINK-36101          
1 66867U 25281V   25360.25003472  .00050086  00000+0  85609-3 0  9999
2 66867  43.0001  40.5627 0001087 234.1565 246.3388 15.50514094  3392
STARLINK-36108          
1 66868U 25281W   25360.25003472  .00044328  00000+0  75907-3 0  9992
2 66868  43.0000  40.5565 0001170 251.1491 231.1795 15.50507376  3392
STARLINK-36092          
1 66869U 25281X   25360.25003472  .00043180  00000+0  73976-3 0  9992
2 66869  43.0001  40.5517 0001157 246.8703 237.3742 15.50503968  3598
STARLINK-36114          
1 66870U 25281Y   25360.25003472  .00046547  00000+0  79663-3 0  9993
2 66870  43.0000  40.5468 0001097 240.4380 245.7158 15.50504641  3456
STARLINK-36095          
1 66871U 25281Z   25360.25003472  .00043817  00000+0  75047-3 0  9993
2 66871  43.0000  40.5415 0000920 238.8893 249.1891 15.50506604  3591
STARLINK-36082          
1 66872U 25281AA  25360.25003472  .00045696  00000+0  78231-3 0  9999
2 66872  43.0000  40.5366 0001203 244.6308 245.3625 15.50503155  3454
STARLINK-36128          
1 66873U 25281AB  25360.25003472  .00047209  00000+0  80783-3 0  9997
2 66873  43.0000  40.5214 0001146 237.4125 258.3270 15.50504009  3594
STARLINK-36129          
1 66874U 25281AC  25360.25003472  .00049149  00000+0  84051-3 0  9995
2 66874  43.0003  40.5322 0001146 244.3948 247.5038 15.50506119  3594
STARLINK-36053          
1 66875U 25281AD  25360.25003472  .00045492  00000+0  77883-3 0  9998
2 66875  43.0000  40.5159 0001136 238.7985 258.8607 15.50504213  3597
STARLINK-35702          
1 66876U 25281AE  25360.25003472  .00048935  00000+0  83700-3 0  9999
2 66876  43.0001  40.5267 0001063 243.3845 250.4366 15.50503295  3594
ZQ-3 R/B                
1 66877U 25282A   25360.31643300  .00969835  79772-5  16053-3 0  9994
2 66877  56.9488   4.6060 0664482 243.9844 109.1326 14.87235222  3399
STARLINK-35866          
1 66878U 25283A   25360.25003472 -.02048487  00000+0 -30660-1 0  9994
2 66878  53.1595   6.6083 0001450  90.1476 199.2482 15.57470030  4602
STARLINK-35749          
1 66879U 25283B   25360.25003472 -.02052241  00000+0 -30719-1 0  9993
2 66879  53.1593   6.6000 0001439  93.5272 199.6995 15.57473669  4602
STARLINK-35844          
1 66880U 25283C   25360.25003472 -.02050330  00000+0 -30689-1 0  9998
2 66880  53.1600   6.6045 0001434  90.7908 200.5214 15.57471361  4605
STARLINK-35860          
1 66881U 25283D   25360.25003472 -.02055644  00000+0 -30774-1 0  9997
2 66881  53.1592   6.5957 0001430  89.8368 205.3071 15.57475013  4604
STARLINK-35912          
1 66882U 25283E   25360.25003472 -.02049763  00000+0 -30679-1 0  9997
2 66882  53.1594   6.5926 0001414  89.5592 207.5017 15.57471983  4607
STARLINK-35947          
1 66883U 25283F   25360.25003472 -.02005752  00000+0 -30583-1 0  9992
2 66883  53.1598   6.5893 0001379  92.1316 206.8474 15.57468425  4649
STARLINK-36057          
1 66884U 25283G   25360.25003472 -.02049139  00000+0 -30672-1 0  9999
2 66884  53.1594   6.5806 0001280  92.2904 210.5243 15.57470322  4606
STARLINK-35954          
1 66885U 25283H   25360.25003472 -.02051577  00000+0 -30711-1 0  9993
2 66885  53.1593   6.5846 0001325  90.1090 210.7890 15.57471223  4604
STARLINK-35900          
1 66886U 25283J   25360.25003472 -.02049286  00000+0 -30673-1 0  9995
2 66886  53.1595   6.5762 0001368  90.7019 214.0279 15.57470995  4601
STARLINK-35925          
1 66887U 25283K   25360.25003472 -.02048877  00000+0 -30667-1 0  9994
2 66887  53.1593   6.5726 0001342  94.8950 211.7533 15.57470276  4600
STARLINK-35919          
1 66888U 25283L   25360.25003472 -.02045761  00000+0 -30616-1 0  9998
2 66888  53.1592   6.5685 0001310  95.8325 212.7305 15.57470073  4609
STARLINK-35852          
1 66889U 25283M   25360.25003472 -.02047145  00000+0 -30638-1 0  9991
2 66889  53.1598   6.5638 0001340  97.0540 213.4267 15.57470030  4608
STARLINK-35885          
1 66890U 25283N   25360.25003472 -.02051368  00000+0 -30706-1 0  9991
2 66890  53.1596   6.5600 0001328  93.4254 218.9702 15.57472931  4601
STARLINK-35855          
1 66891U 25283P   25360.25003472 -.02047960  00000+0 -30651-1 0  9994
2 66891  53.1593   6.5561 0001334  93.4141 220.8984 15.57471325  4607
STARLINK-35883          
1 66892U 25283Q   25360.25003472 -.02045589  00000+0 -30613-1 0  9998
2 66892  53.1593   6.5518 0001337  94.7436 221.4864 15.57469710  4546
STARLINK-36033          
1 66893U 25283R   25360.25003472 -.02045526  00000+0 -30612-1 0  9999
2 66893  53.1596   6.5477 0001267  94.3276 223.8188 15.57470111  4603
STARLINK-35718          
1 66894U 25283S   25360.25003472 -.02047909  00000+0 -30651-1 0  9990
2 66894  53.1593   6.5447 0001293  94.6277 225.4361 15.57470980  4606
STARLINK-35971          
1 66895U 25283T   25360.25003472 -.02051214  00000+0 -30704-1 0  9994
2 66895  53.1595   6.5345 0001281  93.3497 230.5478 15.57472629  4601
STARLINK-35791          
1 66896U 25283U   25360.25003472 -.02057579  00000+0 -30807-1 0  9999
2 66896  53.1594   6.5387 0001197  93.1809 228.7993 15.57476492  4601
STARLINK-36079          
1 66897U 25283V   25360.25003472 -.02052695  00000+0 -30731-1 0  9990
2 66897  53.1597   6.5312 0001099  96.4087 229.4078 15.57472435  4603
STARLINK-36065          
1 66898U 25283W   25360.25003472 -.02050472  00000+0 -30693-1 0  9999
2 66898  53.1597   6.5266 0001192  93.1192 234.6116 15.57472431  4604
STARLINK-36064          
1 66899U 25283X   25360.25003472 -.02047068  00000+0 -30640-1 0  9999
2 66899  53.1595   6.5234 0001240  93.9555 235.6956 15.57468668  4546
STARLINK-36074          
1 66900U 25283Y   25360.25003472 -.02049220  00000+0 -30673-1 0  9990
2 66900  53.1596   6.5190 0001249  93.6377 237.9283 15.57470653  4601
STARLINK-36043          
1 66901U 25283Z   25360.25003472 -.02057060  00000+0 -30800-1 0  9994
2 66901  53.1597   6.5146 0001222  90.4675 243.0150 15.57474908  4609
STARLINK-35983          
1 66902U 25283AA  25360.25003472 -.02052954  00000+0 -30734-1 0  9998
2 66902  53.1596   6.5104 0001199  90.9969 244.4017 15.57473257  4600
STARLINK-36077          
1 66903U 25283AB  25360.25003472 -.02050940  00000+0 -30700-1 0  9995
2 66903  53.1595   6.5070 0001206  92.0497 245.2647 15.57472893  4603
STARLINK-36059          
1 66904U 25283AC  25360.25003472 -.02050521  00000+0 -30693-1 0  9992
2 66904  53.1593   6.5020 0001173  93.0543 246.1763 15.57473205  4600
STARLINK-36075          
1 66905U 25283AD  25360.25003472 -.02059521  00000+0 -30840-1 0  9996
2 66905  53.1594   6.4984 0001181  88.3445 252.8046 15.57476751  4604
1998-067XS              
1 66906U 98067XS  25360.26061709  .00025789  00000+0  43777-3 0  9995
2 66906  51.6322  75.3293 0002669 271.0578  89.0106 15.51300220  3714
1998-067XT              
1 66907U 98067XT  25358.44440007  .00067981  00000+0  10726-2 0  9992
2 66907  51.6313  84.2012 0003885 298.2919  61.7678 15.52879993  3433
1998-067XU              
1 66908U 98067XU  25360.24502402  .00058677  00000+0  91736-3 0  9995
2 66908  51.6316  75.2260 0003819 307.4311  52.6331 15.53197536  3711
SILVERSAT               
1 66909U 98067XV  25360.24322976  .00069517  00000+0  10733-2 0  9994
2 66909  51.6312  75.2140 0003811 312.9233  47.1437 15.53472060  3715
1998-067XW              
1 66910U 98067XW  25360.24163641  .00062317  00000+0  96719-3 0  9998
2 66910  51.6294  75.2017 0003762 284.0151  76.0421 15.53373617  3714
1998-067XX              
1 66911U 98067XX  25360.23742765  .00075265  00000+0  11418-2 0  9996
2 66911  51.6300  75.1744 0003512 292.0313  68.0304 15.53922498  3708
1998-067XY              
1 66912U 98067XY  25360.25137310  .00048350  00000+0  77857-3 0  9998
2 66912  51.6312  75.2679 0003834 300.6282  59.4330 15.52460987  3700
2025-284A               
1 66913U 25284A   25357.10748193  .00008748  00000+0  55264-3 0  9992
2 66913  80.4035 116.7336 0013475 259.6514 100.3189 15.08893564  2694
2025-284B               
1 66914U 25284B   25350.28554881  .00008068  00000+0  38445-3 0  9991
2 66914  80.4045 125.2713 0008179 234.9626 125.0834 15.18985981  1668
HULIANWANG DIGUI-105    
1 66915U 25285A   25360.30041797  .00000040  00000+0  12286-3 0  9991
2 66915  50.0058  62.0529 0008033 328.9563  31.0866 14.02802812  2814
HULIANWANG DIGUI-106    
1 66916U 25285B   25360.29758199  .00000036  00000+0  12041-3 0  9995
2 66916  50.0075  62.0409 0006966 321.6136  38.4272 14.02785000  2811
HULIANWANG DIGUI-107    
1 66917U 25285C   25360.29584972  .00000019  00000+0  10883-3 0  9995
2 66917  50.0050  62.0245 0007044 328.6528  31.3956 14.03004020  2811
HULIANWANG DIGUI-108    
1 66918U 25285D   25360.29531532  .00000043  00000+0  12415-3 0  9990
2 66918  50.0039  62.0313 0006581 328.8271  31.2242 14.02966458  2815
HULIANWANG DIGUI-109    
1 66919U 25285E   25360.29340978  .00000051  00000+0  12944-3 0  9999
2 66919  50.0063  62.0266 0007963 340.7911  19.2692 14.03107457  2811
HULIANWANG DIGUI-110    
1 66920U 25285F   25360.29271917  .00000025  00000+0  11251-3 0  9998
2 66920  50.0126  62.0280 0005876 336.1171  23.9460 14.03164877  2811
HULIANWANG DIGUI-111    
1 66921U 25285G   25360.29201394  .00000027  00000+0  11334-3 0  9995
2 66921  50.0127  62.0255 0006536 338.2303  21.8323 14.03318134  2811
